GLOBALSTAR M068 [-]     
1 32266U 07048D   23324.54180404 -.00000074  00000+0  16505-3 0  9999
2 32266  51.9889 253.8881 0001010   5.8075 165.5182 12.62771494745246
GLOBALSTAR M079 [+]     
1 37188U 10054A   23324.60736715 -.00000094  00000+0  54340-4 0  9999
2 37188  52.0032  88.8968 0001029 114.0430 259.6566 12.62269954604570
GLOBALSTAR M074 [+]     
1 37189U 10054B   23324.81612317 -.00000096  00000+0  41101-4 0  9997
2 37189  52.0010  87.6719 0000802 115.8375   7.5771 12.62271937604597
GLOBALSTAR M076 [+]     
1 37190U 10054C   23324.68069206 -.00000100  00000+0  23269-4 0  9998
2 37190  52.0023  88.2049 0001194 138.2618 328.1806 12.62263808604588
GLOBALSTAR M077 [+]     
1 37191U 10054D   23324.48881705 -.00000093  00000+0  58605-4 0  9996
2 37191  52.0089  45.4816 0000492 125.8752 247.5438 12.62266525604572
GLOBALSTAR M075 [+]     
1 37192U 10054E   23324.23320803 -.00000096  00000+0  45055-4 0  9995
2 37192  51.9922 132.1477 0001106  96.7122  74.0674 12.62267646603393
GLOBALSTAR M073 [+]     
1 37193U 10054F   23324.51478775 -.00000097  00000+0  35807-4 0  9994
2 37193  52.0076  44.6671 0000597 123.0215 249.8085 12.62269280605261
GLOBALSTAR M083 [+]     
1 37739U 11033A   23324.38916910 -.00000088  00000+0  87390-4 0  9995
2 37739  51.9879 354.5675 0000507  72.8034  29.9182 12.62262985574269
GLOBALSTAR M088 [+]     
1 37740U 11033B   23324.53622781 -.00000095  00000+0  49407-4 0  9999
2 37740  51.9739 260.0950 0001002  61.7726 109.1250 12.62267593570116
GLOBALSTAR M091 [+]     
1 37741U 11033C   23324.23233545 -.00000094  00000+0  54241-4 0  9994
2 37741  51.9993 223.5487 0001240  69.2536  99.2442 12.62268691570576
GLOBALSTAR M085 [+]     
1 37742U 11033D   23324.29889339 -.00000103  00000+0  61786-5 0  9993
2 37742  51.9845 174.8934 0001289  81.1163  90.3805 12.62265388571093
GLOBALSTAR M081 [+]     
1 37743U 11033E   23324.84498181 -.00000088  00000+0  87272-4 0  9995
2 37743  51.9935 175.6630 0001379  89.0640 285.1789 12.62267111571690
GLOBALSTAR M089 [+]     
1 37744U 11033F   23324.40936889 -.00000098  00000+0  34502-4 0  9999
2 37744  51.9904 131.3227 0000978 114.7219 259.1841 12.62269717572101
GLOBALSTAR M084 [+]     
1 38040U 11080A   23324.85338374 -.00000082  00000+0  12305-3 0  9994
2 38040  52.0030 356.9573 0000280 152.4217  19.0500 12.62267886550415
GLOBALSTAR M080 [+]     
1 38041U 11080B   23324.50889049 -.00000081  00000+0  12463-3 0  9991
2 38041  52.0083 359.4107 0000511 156.2764   9.0367 12.62266314550214
GLOBALSTAR M082 [+]     
1 38042U 11080C   23324.18656491 -.00000091  00000+0  69422-4 0  9998
2 38042  52.0085 315.7755 0000913  28.9780  52.1668 12.62268049550883
GLOBALSTAR M092 [+]     
1 38043U 11080D   23324.56130062 -.00000099  00000+0  24502-4 0  9990
2 38043  52.0102  44.9774 0000432 163.0022 302.4140 12.62262660549384
GLOBALSTAR M090 [+]     
1 38044U 11080E   23324.38572396 -.00000084  00000+0  10815-3 0  9996
2 38044  51.9894 309.7176 0000677  47.7863  99.5744 12.62263604551028
GLOBALSTAR M086 [+]     
1 38045U 11080F   23324.33138639 -.00000074  00000+0  16860-3 0  9995
2 38045  51.9907 310.3910 0001207 105.8754  33.4324 12.62264535550960
GLOBALSTAR M097 [+]     
1 39072U 13005A   23324.64392136 -.00000104  00000+0 -31056-5 0  9994
2 39072  52.0041 223.4023 0001216  70.0852 290.0145 12.62272637498339
GLOBALSTAR M093 [+]     
1 39073U 13005B   23324.45908511 -.00000095  00000+0  49771-4 0  9994
2 39073  51.9804 218.1882 0001459  73.2378 286.8649 12.62269051498301
GLOBALSTAR M094 [+]     
1 39074U 13005C   23324.53831596 -.00000101  00000+0  15844-4 0  9994
2 39074  51.9933 131.7526 0001219  99.1144 260.9861 12.62269946499800
GLOBALSTAR M096 [+]     
1 39075U 13005D   23324.86830093 -.00000099  00000+0  24432-4 0  9991
2 39075  52.0052 178.8161 0001375  82.9391 277.1632 12.62266435499119
GLOBALSTAR M078 [+]     
1 39076U 13005E   23324.52500938  .00000029  00000+0  74017-3 0  9992
2 39076  51.9877 265.1503 0001296  15.7077 344.3829 12.62265127497345
GLOBALSTAR M095 [+]     
1 39077U 13005F   23324.55149929 -.00000087  00000+0  93395-4 0  9991
2 39077  51.9802 262.5523 0001327  41.6890 318.4078 12.62270773497209
GLOBALSTAR M087 [+]     
1 52888U 22064A   23324.43528327 -.00000095  00000+0  63983-4 0  9990
2 52888  51.9753 219.7673 0009069 187.4188 172.6580 13.37558434 69455
